STARLINK-3154
1 29417C 21104K   21325.19131712 -.00828424  00000-0 -28012-2 0  3259
2 29417  53.2174  95.6727 0032335  63.9137 161.7249 15.89124641    12
